satname,norad_id,inclination_deg,eccentricity,mean_motion_rev_per_day,perigee_km,apogee_km,l1,l2
STARLINK-1234,45190,53.0339,0.00012,15.82640046,322.1739152913824,323.78218290316545,1 45190U 20012N   26181.84692441  .00134417  00000+0  62087-3 0  9995,2 45190  53.0339 125.1135 0001200 143.3002 216.8103 15.82640046353668
STARLINK-1269,45197,53.1528,0.0003013,15.36935715,453.11804726305945,457.23580223411227,1 45197U 20012V   26181.49944778  .00035223  00000+0  96713-3 0  9994,2 45197  53.1528 233.6462 0003013   6.9861 353.1184 15.36935715352218
STARLINK-1154,45198,53.0386,0.0004266,15.65484973,368.9648022021056,374.7238862850136,1 45198U 20012W   26181.27060610  .00036788  00000+0  36434-3 0  9996,2 45198  53.0386 184.6847 0004266  44.8829 315.2530 15.65484973352826
STARLINK-1199,45201,53.1539,0.0005563,15.36878897,451.54387467150354,459.14680712398604,1 45201U 20012Z   26181.40554031  .00036148  00000+0  99366-3 0  9994,2 45201  53.1539 218.3580 0005563   3.0491 357.0545 15.36878897352442
STARLINK-1209,45206,53.0359,0.0001309,15.72846231,349.8861603908581,351.64778745123203,1 45206U 20012AE  26181.17632735  .00060953  00000+0  44209-3 0  9998,2 45206  53.0359 144.6998 0001309 121.3834 238.7312 15.72846231352487
STARLINK-1231,45212,53.0359,0.0002259,15.29265575,476.4577117757435,479.55531741563755,1 45212U 20012AL  26181.36783338  .00027538  00000+0  96569-3 0  9990,2 45212  53.0359 214.7213 0002259  67.4369 292.6869 15.29265575352429
STARLINK-1271,45217,53.1531,0.0004776,15.37091623,451.4514758465439,457.9782159297365,1 45217U 20012AR  26181.53041988  .00041269  00000+0  11245-2 0  9996,2 45217  53.1531 217.8679 0004776   6.4401 353.6663 15.37091623352467
STARLINK-1191,45222,53.1514,0.000378,15.4126098,439.8084887766381,444.9648046535549,1 45222U 20012AW  26181.32066984  .00045764  00000+0  10866-2 0  9994,2 45222  53.1514 191.1906 0003780 346.9756  13.1151 15.41260980352829
STARLINK-1212,45223,53.0374,0.0001515,15.71717852,352.96724734549116,355.00708096723065,1 45223U 20012AX  26181.94728699  .00076473  00000+0  57953-3 0  9991,2 45223  53.0374 156.3762 0001515 105.4618 254.6566 15.71717852353343
STARLINK-1215,45225,53.1527,0.0005402,15.37218822,450.6470094394517,458.0288153347947,1 45225U 20012AZ  26181.46264306  .00038606  00000+0  10486-2 0  9995,2 45225  53.1527 192.4295 0005402   8.1977 351.9114 15.37218822352775
STARLINK-1221,45227,53.0636,0.000295,15.45930434,426.6375464107905,430.65354811367433,1 45227U 20012BB  26181.03865780  .00050933  00000+0  10317-2 0  9993,2 45227  53.0636  95.7140 0002950  35.8786 324.2418 15.45930434354064
STARLINK-1222,45228,53.0508,0.0003827,15.56802245,394.32596643660236,399.51159413083224,1 45228U 20012BC  26181.94587277  .00035496  00000+0  49100-3 0  9996,2 45228  53.0508 156.9053 0003827  65.6452 294.4958 15.56802245353225
STARLINK-1226,45229,53.1526,0.0005522,15.46547859,423.0760836523841,430.59149339122814,1 45229U 20012BD  26181.29382677  .00051912  00000+0  10289-2 0  9998,2 45229  53.1526 187.8061 0005522   7.4182 352.6907 15.46547859352762
STARLINK-1227,45230,53.1511,0.0005256,15.46641956,422.98123057574776,430.1343257265398,1 45230U 20012BE  26181.30228033  .00061900  00000+0  12198-2 0  9996,2 45230  53.1511 187.8532 0005256   2.3828 357.7204 15.46641956352888
STARLINK-1246,45235,53.1536,0.0004744,15.37098458,451.4530948517895,457.93608546453197,1 45235U 20012BK  26181.30986953  .00049313  00000+0  13400-2 0  9994,2 45235  53.1536 234.1543 0004744 338.3639  21.7163 15.37098458352246
STARLINK-1270,45237,53.0378,0.0001687,15.70755787,355.59959580085433,357.87194187305977,1 45237U 20012BM  26181.93748545  .00072632  00000+0  57357-3 0  9998,2 45237  53.0378 158.2643 0001687 113.8242 246.2952 15.70755787353318
STARLINK-1279,45360,53.0328,0.0003491,15.83619335,317.8767829814187,322.5535724719066,1 45360U 20019A   26182.00001157  .00153952  00000+0  67692-3 0  9990,2 45360  53.0328 258.8778 0003491   2.7629  34.4971 15.83619335  5950
STARLINK-1301,45361,53.0315,0.000522,15.8530194,311.98061672653694,318.96874732256947,1 45361U 20019B   26182.00001157  .00136578  00000+0  55537-3 0  9991,2 45361  53.0315 260.9462 0005220   0.2922  76.3009 15.85301940  5951
STARLINK-1262,45366,53.1547,0.0002586,15.36060879,456.0034404887547,459.53897221307943,1 45366U 20019G   26181.49099415  .00044879  00000+0  12628-2 0  9997,2 45366  53.1547 359.9177 0002586 175.7645 184.3380 15.36060879347048
STARLINK-1273,45367,53.0435,9.1e-05,15.60203719,386.4524852053146,387.6837525369492,1 45367U 20019H   26180.81470628  .00090636  00000+0  10864-2 0  9994,2 45367  53.0435 334.8141 0000910 145.3989 214.7083 15.60203719347317
STARLINK-1277,45369,53.0417,0.000115,15.69410271,359.80964360698636,361.359549574202,1 45369U 20019K   26181.79896276  .00061054  00000+0  51133-3 0  9992,2 45369  53.0417 322.6522 0001150   8.2521 351.8514 15.69410271347575
STARLINK-1281,45370,53.157,0.0002708,15.36865817,453.5335957186526,457.23463075358086,1 45370U 20019L   26181.49023151  .00045153  00000+0  12380-2 0  9997,2 45370  53.1570 359.4220 0002708 151.1030 209.0124 15.36865817347052
STARLINK-1300,45374,53.1585,0.000249,15.37474595,451.87903056619234,455.28122569600237,1 45374U 20019Q   26181.49400181  .00045782  00000+0  12306-2 0  9999,2 45374  53.1585 359.2213 0002490 170.2641 189.8412 15.37474595347055
STARLINK-1302,45375,53.0453,0.0002221,15.69561839,358.65419012789516,361.64733755259385,1 45375U 20019R   26180.68825071  .00053304  00000+0  44465-3 0  9990,2 45375  53.0453 323.9545 0002221 121.5040 238.6194 15.69561839347456
STARLINK-1304,45376,53.0419,0.0001415,15.6557281,370.6367819005982,372.54695517039454,1 45376U 20019S   26181.76849572  .00045282  00000+0  44533-3 0  9995,2 45376  53.0419 320.6104 0001415 171.2112 188.8928 15.65572810347593
STARLINK-1305,45377,53.0384,0.000487,15.74382227,343.1148565482299,349.66454555505334,1 45377U 20019T   26180.70801607  .00067441  00000+0  45697-3 0  9999,2 45377  53.0384 302.9681 0004870 329.1887  30.8845 15.74382227347752
STARLINK-1319,45379,53.0362,0.0002261,15.81770051,323.9192824505644,326.95063769090757,1 45379U 20019V   26181.85021083  .00117119  00000+0  56488-3 0  9998,2 45379  53.0362 287.8751 0002261   4.2975 355.8066 15.81770051348064
STARLINK-1266,45383,53.0456,0.0002203,15.67894308,363.4420822983866,366.4130765520813,1 45383U 20019Z   26180.66448881  .00047162  00000+0  42213-3 0  9991,2 45383  53.0456 310.5935 0002203 327.1425  32.9454 15.67894308347636
STARLINK-1267,45384,53.0432,0.0001309,15.72264093,351.5467789054983,353.3088407727155,1 45384U 20019AA  26181.69569470  .00064880  00000+0  48182-3 0  9991,2 45384  53.0432 296.4975 0001309  39.2218 320.8894 15.72264093347921
STARLINK-1272,45386,53.0391,0.0001733,15.76868953,338.15397713362654,340.4822470754816,1 45386U 20019AC  26181.46413010  .00075143  00000+0  45616-3 0  9999,2 45386  53.0391 275.6983 0001733  37.0657 323.0481 15.76868953348195
STARLINK-1274,45387,53.0182,0.0005297,15.66227196,366.13733090708865,373.28600178421493,1 45387U 20019AD  26182.00001157  .00124290  00000+0  11695-2 0  9993,2 45387  53.0182 273.6596 0005297 274.4965  93.2747 15.66227196  5963
STARLINK-1280,45388,53.033,0.000513,15.88082731,304.22874733824574,311.08837358327764,1 45388U 20019AE  26182.00001157  .00163804  00000+0  57915-3 0  9994,2 45388  53.0330 278.4721 0005130 355.7323 209.8057 15.88082731  5742
STARLINK-1283,45389,53.0375,0.0002978,15.74453334,344.1847293403498,348.1897368535829,1 45389U 20019AF  26181.47510595  .00064304  00000+0  43490-3 0  9994,2 45389  53.0375 274.6545 0002978 320.1304  39.9495 15.74453334348212
STARLINK-1284,45390,53.04,0.0003263,15.72693213,349.00765022752785,353.3992177947639,1 45390U 20019AG  26181.70824893  .00065629  00000+0  47842-3 0  9997,2 45390  53.0400 297.6728 0003263  55.2825 304.8500 15.72693213347909
STARLINK-1297,45395,53.0408,0.0001682,15.75589803,341.8228646443922,344.08383943881927,1 45395U 20019AM  26181.90873597  .00078543  00000+0  50396-3 0  9996,2 45395  53.0408 295.6583 0001682  13.4475 346.6588 15.75589803347136
STARLINK-1307,45397,53.0535,7.52e-05,15.58194897,392.37214968729586,393.3905108441677,1 45397U 20019AP  26181.08185545  .00038668  00000+0  50713-3 0  9993,2 45397  53.0535 307.9932 0000752 303.2343  56.8596 15.58194897347534
STARLINK-1255,45399,53.0331,8.41e-05,15.67969302,364.14549586283283,365.2796431604256,1 45399U 20019AR  26181.94418337  .00055335  00000+0  49242-3 0  9993,2 45399  53.0331 270.0382 0000841 219.8808 140.2146 15.67969302348122
STARLINK-1260,45404,53.1546,0.0002393,15.40097555,444.18816115860045,447.45410752169573,1 45404U 20019AW  26181.74702204  .00058639  00000+0  14418-2 0  9993,2 45404  53.1546 320.4187 0002393 183.6340 176.4648 15.40097555347337
STARLINK-1263,45405,53.1573,0.0001529,15.37070648,453.7322543229084,455.8217594262105,1 45405U 20019AX  26181.11121677  .00052148  00000+0  14175-2 0  9993,2 45405  53.1573 325.1457 0001529 215.9662 144.1239 15.37070648347211
STARLINK-1265,45406,53.1551,5.78e-05,15.40520814,444.1768002241979,444.96550528665557,1 45406U 20019AY  26181.79901626  .00057499  00000+0  13947-2 0  9998,2 45406  53.1551 320.1035 0000578 187.3445 172.7552 15.40520814347347
STARLINK-1278,45408,53.0401,0.0001923,15.76509553,339.04703806581074,341.6309639357951,1 45408U 20019BA  26181.47639689  .00075208  00000+0  46383-3 0  9991,2 45408  53.0401 296.5723 0001923  30.9582 329.1550 15.76509553347625
STARLINK-1296,45412,53.1563,0.0001397,15.40658879,443.21046333628055,445.1166141067997,1 45412U 20019BE  26181.12224731  .00080877  00000+0  19429-2 0  9994,2 45412  53.1563 322.9590 0001397 149.3907 210.7180 15.40658879347246
STARLINK-1309,45414,53.0596,0.0001749,15.74967584,343.5475981964328,345.89925477361703,1 45414U 20019BG  26180.56206992  .00076813  00000+0  50658-3 0  9997,2 45414  53.0596 295.3218 0001749  36.1673 323.9464 15.74967584347545
